STARLINK-32098          
1 59704U 24086Y   26067.99576349 -.00000531  00000+0 -97656-5 0  9996
2 59704  43.0009  64.0121 0001402 255.1283 104.9413 15.27571772104001
FLOCK 4G-15             
1 62678U 25009BX  26068.71779869  .00012647  00000+0  47575-3 0  9991
2 62678  97.4054 151.1927 0003699 316.8208  43.2740 15.27266411121358
